{"type":"FeatureCollection","properties":{"source":"HIFLD Electric Power Transmission Lines (services1.arcgis.com/Hp6G80Pky0om7QvQ), fetched 2026-09-27","note":"HIFLD owner field says PSO; the GRDA–PSO interchange agreement (SPP SA 1135) says GRDA operates these two 161 kV lines from its MAID substation to its substation beside PSO Catoosa"},"features":[{"type":"Feature","properties":{"hifldId":"120742","voltage":161,"sub1":"UNKNOWN118393","sub2":"CATOOSA","hifldOwner":"PUBLIC SERVICE CO OF OKLAHOMA"},"geometry":{"type":"MultiLineString","coordinates":[[[-95.27761,36.21311],[-95.27809,36.21297],[-95.28112,36.21256],[-95.28298,36.20623],[-95.3037,36.19163],[-95.32392,36.18505],[-95.33494,36.17867],[-95.37733,36.17856],[-95.38159,36.17855],[-95.38631,36.17855],[-95.39068,36.17854],[-95.44021,36.17845],[-95.44447,36.17829],[-95.44844,36.17816],[-95.45275,36.178],[-95.457,36.17785],[-95.46089,36.17771],[-95.46423,36.17772],[-95.4684,36.17771],[-95.48762,36.17778],[-95.51832,36.17245],[-95.5373,36.16874],[-95.58735,36.16867],[-95.59153,36.16866],[-95.59597,36.16866],[-95.60067,36.16865],[-95.60499,36.16864],[-95.62456,36.16867],[-95.66817,36.16879],[-95.68428,36.16881],[-95.70423,36.16001],[-95.72006,36.16009],[-95.72924,36.16496],[-95.7308,36.16788],[-95.73384,36.16734],[-95.73999,36.17057],[-95.74733,36.17193],[-95.75115,36.17154],[-95.75291,36.17086],[-95.75374,36.17166]]]}},{"type":"Feature","properties":{"hifldId":"132339","voltage":161,"sub1":"UNKNOWN118393","sub2":"CATOOSA","hifldOwner":"PUBLIC SERVICE CO OF OKLAHOMA"},"geometry":{"type":"MultiLineString","coordinates":[[[-95.27761,36.21311],[-95.27809,36.21308],[-95.28115,36.2126],[-95.28302,36.20626],[-95.30372,36.19168],[-95.32394,36.1851],[-95.33496,36.17872],[-95.37733,36.17861],[-95.38159,36.1786],[-95.38631,36.1786],[-95.39068,36.17859],[-95.44022,36.1785],[-95.44447,36.17834],[-95.44844,36.17821],[-95.45275,36.17805],[-95.457,36.1779],[-95.46089,36.17776],[-95.46423,36.17777],[-95.4684,36.17776],[-95.48762,36.17783],[-95.51833,36.1725],[-95.53731,36.16879],[-95.58735,36.16872],[-95.59153,36.16871],[-95.59597,36.16871],[-95.60067,36.1687],[-95.60499,36.16869],[-95.62456,36.16872],[-95.66817,36.16884],[-95.6843,36.16886],[-95.70424,36.16006],[-95.72004,36.16014],[-95.7292,36.16499],[-95.73077,36.16793],[-95.73384,36.16739],[-95.73997,36.17062],[-95.74733,36.17198],[-95.75116,36.17159],[-95.75291,36.17099],[-95.75374,36.17166]]]}}]}