{"type":"FeatureCollection","features":[{"type":"Feature","id":3615,"geometry":{"type":"Polygon","coordinates":[[[-95.736126,36.147936],[-95.739594,36.14795],[-95.739594,36.14795],[-95.739594,36.14795],[-95.739581,36.146318],[-95.739567,36.144406],[-95.741249,36.144415],[-95.744119,36.144433],[-95.744119,36.144433],[-95.744107,36.142852],[-95.744105,36.142701],[-95.744101,36.142173],[-95.7441,36.142031],[-95.744097,36.141688],[-95.744094,36.141246],[-95.74409,36.140807],[-95.744061,36.137181],[-95.744053,36.13622],[-95.744047,36.135548],[-95.744036,36.134123],[-95.744036,36.134122],[-95.744031,36.133549],[-95.739562,36.133554],[-95.739358,36.133553],[-95.739143,36.133552],[-95.737434,36.133542],[-95.737098,36.13354],[-95.736762,36.133538],[-95.736505,36.133536],[-95.735887,36.133533],[-95.735885,36.133793],[-95.734582,36.133787],[-95.73332,36.133904],[-95.732938,36.133902],[-95.732892,36.139712],[-95.733028,36.139713],[-95.733011,36.14191],[-95.733357,36.143027],[-95.734716,36.144959],[-95.734698,36.147785],[-95.734799,36.147868],[-95.735255,36.14787],[-95.736114,36.147874],[-95.736126,36.147936]]]},"properties":{"OBJECTID":3615,"ZONE_TYPE":"IL","ZCASE_NUM":"25211","ORDINANCE":null,"LEGEND":"Industrial","COUNTY":"Wagoner","ACRES":335.16887664,"created_date":null,"last_edited_date":1777917174000}},{"type":"Feature","id":15468,"geometry":{"type":"MultiPolygon","coordinates":[[[[-95.69092,36.162322],[-95.695613,36.162336],[-95.698882,36.162346],[-95.704243,36.162361],[-95.704247,36.162361],[-95.708499,36.162326],[-95.708521,36.162326],[-95.708521,36.162318],[-95.709931,36.162338],[-95.710771,36.162349],[-95.710771,36.162261],[-95.710768,36.161612],[-95.710767,36.160543],[-95.713004,36.160566],[-95.713007,36.161628],[-95.713009,36.162195],[-95.713009,36.162372],[-95.717444,36.162418],[-95.721917,36.162464],[-95.726279,36.162509],[-95.726475,36.16251],[-95.729559,36.162518],[-95.732005,36.162523],[-95.732002,36.160613],[-95.732001,36.160575],[-95.732,36.160546],[-95.732052,36.160546],[-95.732044,36.160482],[-95.73204,36.15885],[-95.73211,36.155323],[-95.732111,36.155209],[-95.731802,36.155203],[-95.726967,36.155187],[-95.726313,36.155185],[-95.726325,36.152498],[-95.726325,36.152497],[-95.726482,36.152496],[-95.72649,36.152496],[-95.730684,36.152472],[-95.730683,36.151597],[-95.731801,36.1516],[-95.732117,36.151601],[-95.732123,36.147986],[-95.732124,36.147962],[-95.732124,36.147962],[-95.732201,36.145223],[-95.732179,36.142351],[-95.73228,36.133795],[-95.732283,36.133535],[-95.732283,36.133517],[-95.735519,36.133531],[-95.735887,36.133533],[-95.736505,36.133536],[-95.736762,36.133538],[-95.737098,36.13354],[-95.737434,36.133542],[-95.739143,36.133552],[-95.739358,36.133553],[-95.739562,36.133554],[-95.744031,36.133549],[-95.744003,36.129923],[-95.744003,36.129903],[-95.744004,36.129819],[-95.744006,36.129305],[-95.744006,36.129201],[-95.744017,36.126297],[-95.744017,36.126297],[-95.744022,36.126297],[-95.744024,36.126297],[-95.744024,36.126297],[-95.753046,36.126283],[-95.753046,36.126283],[-95.753037,36.122698],[-95.753027,36.119036],[-95.75302,36.119036],[-95.75302,36.119034],[-95.748556,36.119045],[-95.744364,36.119056],[-95.744051,36.119056],[-95.744044,36.119056],[-95.744044,36.119056],[-95.744,36.119056],[-95.736916,36.119029],[-95.735166,36.119022],[-95.735089,36.119022],[-95.735089,36.118998],[-95.735089,36.118958],[-95.735051,36.118958],[-95.735052,36.118918],[-95.73505,36.118711],[-95.735049,36.118527],[-95.735047,36.118343],[-95.735046,36.118159],[-95.735045,36.117974],[-95.735043,36.11779],[-95.735042,36.117606],[-95.73504,36.117422],[-95.735039,36.117238],[-95.735037,36.117054],[-95.735036,36.11687],[-95.735035,36.116686],[-95.735033,36.116502],[-95.735032,36.116318],[-95.73503,36.116134],[-95.735029,36.11595],[-95.735028,36.115766],[-95.735026,36.115582],[-95.735025,36.115375],[-95.735027,36.115303],[-95.735027,36.115302],[-95.73503,36.1152],[-95.735031,36.115174],[-95.735076,36.113755],[-95.735076,36.113753],[-95.735076,36.113115],[-95.735076,36.113072],[-95.735076,36.11214],[-95.735075,36.111679],[-95.735075,36.111678],[-95.735063,36.111678],[-95.726535,36.11165],[-95.726177,36.111658],[-95.726176,36.111504],[-95.726176,36.111503],[-95.726175,36.11125],[-95.726175,36.111121],[-95.726174,36.110954],[-95.726174,36.110921],[-95.726174,36.110788],[-95.726168,36.108219],[-95.726164,36.108219],[-95.726163,36.108074],[-95.726158,36.107332],[-95.726148,36.106562],[-95.726146,36.106246],[-95.726144,36.105924],[-95.726139,36.105281],[-95.726133,36.104471],[-95.720708,36.104471],[-95.718082,36.10447],[-95.718078,36.10447],[-95.717223,36.10447],[-95.708286,36.104468],[-95.708199,36.104468],[-95.694881,36.104396],[-95.694908,36.111572],[-95.699376,36.111597],[-95.699436,36.118923],[-95.699436,36.118923],[-95.697336,36.118923],[-95.697261,36.118923],[-95.697202,36.118923],[-95.697188,36.120637],[-95.697173,36.122466],[-95.694935,36.122451],[-95.694918,36.120638],[-95.694921,36.118924],[-95.694921,36.118924],[-95.690453,36.118925],[-95.690433,36.115673],[-95.690433,36.115577],[-95.690425,36.114378],[-95.690422,36.113759],[-95.690409,36.111624],[-95.690409,36.111624],[-95.681894,36.111625],[-95.681894,36.111625],[-95.681895,36.111762],[-95.681708,36.11176],[-95.681713,36.118504],[-95.681727,36.118906],[-95.681727,36.118906],[-95.681745,36.125908],[-95.690451,36.125926],[-95.690451,36.126022],[-95.69047,36.126023],[-95.690569,36.126025],[-95.690814,36.126025],[-95.694909,36.126018],[-95.694911,36.126018],[-95.695088,36.126017],[-95.699379,36.126006],[-95.7078,36.125984],[-95.708371,36.12599],[-95.70885,36.125995],[-95.708896,36.125995],[-95.716945,36.126027],[-95.716936,36.121161],[-95.712437,36.121143],[-95.712436,36.121143],[-95.71245,36.119573],[-95.712452,36.119329],[-95.712456,36.118978],[-95.712456,36.118918],[-95.712456,36.118918],[-95.712456,36.118904],[-95.712456,36.118886],[-95.712457,36.118874],[-95.712462,36.118312],[-95.712462,36.118289],[-95.712466,36.117833],[-95.712466,36.117804],[-95.712475,36.116849],[-95.712475,36.116831],[-95.712477,36.116683],[-95.712478,36.116683],[-95.712478,36.116683],[-95.721694,36.11674],[-95.721674,36.118955],[-95.721674,36.118955],[-95.721654,36.121176],[-95.721653,36.121176],[-95.721653,36.121176],[-95.717167,36.121163],[-95.717147,36.126194],[-95.717146,36.126194],[-95.717146,36.126194],[-95.713052,36.126183],[-95.713019,36.126183],[-95.711016,36.126178],[-95.710968,36.126178],[-95.708407,36.126171],[-95.708407,36.126165],[-95.708371,36.126165],[-95.704023,36.126162],[-95.700901,36.12616],[-95.700821,36.126159],[-95.699395,36.126158],[-95.698235,36.126157],[-95.694243,36.126154],[-95.692345,36.126153],[-95.692276,36.126153],[-95.690688,36.126153],[-95.690687,36.133374],[-95.690687,36.133374],[-95.690689,36.140441],[-95.694707,36.140461],[-95.696999,36.140473],[-95.699725,36.140487],[-95.699731,36.14068],[-95.699731,36.14068],[-95.699748,36.1479],[-95.699748,36.1479],[-95.699748,36.148092],[-95.690539,36.148077],[-95.690549,36.153154],[-95.69058,36.154887],[-95.690899,36.154885],[-95.69092,36.162322]]],[[[-95.745807,36.146441],[-95.74581,36.146787],[-95.745823,36.148013],[-95.746864,36.148018],[-95.749828,36.148034],[-95.749919,36.148034],[-95.750365,36.148036],[-95.750466,36.148036],[-95.752599,36.148032],[-95.752789,36.148032],[-95.75304,36.148031],[-95.75303,36.146793],[-95.753011,36.144586],[-95.75301,36.144405],[-95.750775,36.144412],[-95.748587,36.144419],[-95.748515,36.140793],[-95.74409,36.140807],[-95.744094,36.141246],[-95.744097,36.141688],[-95.7441,36.142031],[-95.744101,36.142173],[-95.744105,36.142701],[-95.744107,36.142852],[-95.744119,36.144433],[-95.744318,36.144434],[-95.745794,36.14444],[-95.745807,36.146441]]]]},"properties":{"OBJECTID":15468,"ZONE_TYPE":"MPD-6","ZCASE_NUM":"MPD-6","ORDINANCE":"25765","LEGEND":"Master Planned Development","COUNTY":"Wagoner","ACRES":6286.74168411,"created_date":1777910460000,"last_edited_date":1781102793000}}]}
