{"type":"FeatureCollection","properties":{"source":"Wagoner County parcels via City of Tulsa zoning web map (LandBaseWebMapView/MapServer/7)","fetched":"2026-09-27"},"features":[{"type":"Feature","properties":{"group":"Z-7851 phase-2 applicant owners","owner":"Private owner (see Assessor record)","acres":37.31,"legal":"18-19-15 1/3 INT L-1 OR NW NW","parcel":"301182-000001-000000","account":"730001271"},"geometry":{"type":"Polygon","coordinates":[[[-95.761608,36.133494],[-95.760514,36.133497],[-95.759421,36.133501],[-95.757398,36.133507],[-95.757417,36.129891],[-95.761608,36.129896],[-95.761608,36.133494]]]}},{"type":"Feature","properties":{"group":"Z-7851 phase-2 applicant owners","owner":"Private owner (see Assessor record)","acres":80,"legal":"18-19-15 1/3 INT EA NE NW: NW NE","parcel":"301181-000002-000000","account":"730001279"},"geometry":{"type":"Polygon","coordinates":[[[-95.748473,36.133535],[-95.748466,36.129913],[-95.757417,36.129891],[-95.757398,36.133507],[-95.75691,36.133514],[-95.752943,36.133527],[-95.748473,36.133535]]]}},{"type":"Feature","properties":{"group":"Z-7851 phase-2 applicant owners","owner":"Private owner (see Assessor record)","acres":77,"legal":"07-19-15 E2 SW LESS 3 AC TO [private owner] DES BK 422 PG 537","parcel":"301073-000001-000000","account":"730000856"},"geometry":{"type":"Polygon","coordinates":[[[-95.757451,36.140765],[-95.757227,36.140766],[-95.75298,36.140779],[-95.75295,36.137153],[-95.752943,36.133527],[-95.75691,36.133514],[-95.756915,36.135932],[-95.757418,36.13593],[-95.757451,36.140765]]]}},{"type":"Feature","properties":{"group":"Z-7851 phase-2 applicant owners","owner":"Private owner (see Assessor record)","acres":40.63,"legal":"07-19-15 S 2 AC OF L1 : W 2 AC OF SE NW : L2","parcel":"301072-000003-000000","account":"730000862"},"geometry":{"type":"Polygon","coordinates":[[[-95.760422,36.144572],[-95.757482,36.144572],[-95.757481,36.144391],[-95.757257,36.144392],[-95.757227,36.140766],[-95.757451,36.140765],[-95.761611,36.140728],[-95.761631,36.144569],[-95.760422,36.144572]]]}},{"type":"Feature","properties":{"group":"Z-7851 phase-2 applicant owners","owner":"Private owner (see Assessor record)","acres":40,"legal":"07-19-15 S 2 AC NE NW : E 38 AC SE NW","parcel":"301072-000004-000000","account":"730000867"},"geometry":{"type":"Polygon","coordinates":[[[-95.757482,36.144572],[-95.753011,36.144586],[-95.75301,36.144405],[-95.75298,36.140779],[-95.757227,36.140766],[-95.757257,36.144392],[-95.757481,36.144391],[-95.757482,36.144572]]]}},{"type":"Feature","properties":{"group":"Z-7851 phase-2 applicant owners","owner":"Private owner (see Assessor record)","acres":5.06,"legal":"7-19-15 COMM AT THE NW COR OF SEC 7 - N88'32'14\"E ALONG N LN DIS 2024.20' - S01'27'46\"E DIS 60' TO THE POB - S01'31'55\"E DIS 390.02' - S17'19'01\"E DIS 436.56' - S72'40'59W DIS 473.56' - N17'19'01\"W DI","parcel":"301072-000001-000002","account":"730096714"},"geometry":{"type":"Polygon","coordinates":[[[-95.754866,36.147846],[-95.754863,36.146775],[-95.754456,36.145622],[-95.755998,36.145264],[-95.756409,36.146427],[-95.754965,36.146763],[-95.75497,36.147846],[-95.754866,36.147846]]]}},{"type":"Feature","properties":{"group":"Z-7851 phase-2 applicant owners","owner":"Private owner (see Assessor record)","acres":52.06,"legal":"07-19-15 E 24.12 AC OF N 34.39 AC OF L1 : N 38 AC OF NE NW LESS A TRACT OF LAND SITUATED GOV LOT 1 DESCRIBED AS BEG AT THE INTERSECTION OF W LN OF [adjoining private tract] : S ROW LN OF E 11TH ST -N88'33'37\"E D","parcel":"301072-000001-000000","account":"730000864"},"geometry":{"type":"Polygon","coordinates":[[[-95.75304,36.148031],[-95.753011,36.144586],[-95.757482,36.144572],[-95.760422,36.144572],[-95.760423,36.146948],[-95.758526,36.146952],[-95.758527,36.14802],[-95.757092,36.148023],[-95.755779,36.148026],[-95.755677,36.148026],[-95.753157,36.148031],[-95.75304,36.148031]],[[-95.756409,36.146427],[-95.755998,36.145264],[-95.754456,36.145622],[-95.754863,36.146775],[-95.754866,36.147846],[-95.75497,36.147846],[-95.754965,36.146763],[-95.756409,36.146427]]]}},{"type":"Feature","properties":{"group":"Z-7851 phase-2 applicant owners","owner":"Private owner (see Assessor record)","acres":1,"legal":"TURNBERRY LOT 8 BLK 11","parcel":"001756-011008-000000","account":"730069456"},"geometry":{"type":"Polygon","coordinates":[[[-95.748851,36.100046],[-95.748444,36.100046],[-95.748445,36.099878],[-95.748851,36.099882],[-95.748851,36.100046]]]}},{"type":"Feature","properties":{"group":"Robson / Fair Oaks Ranch (MPD-6 applicants)","owner":"FAIR OAKS RANCH, LLC","acres":155.75,"legal":"18-19-15 L-3:4:E2 SW:SE LESS SW","parcel":"301183-000001-000000","account":"730001278"},"geometry":{"type":"Polygon","coordinates":[[[-95.753027,36.119009],[-95.753046,36.126283],[-95.744024,36.126297],[-95.744051,36.119045],[-95.753027,36.119009]]]}},{"type":"Feature","properties":{"group":"Robson / Fair Oaks Ranch (MPD-6 applicants)","owner":"FAIR OAKS RANCH LLC","acres":160,"legal":"17-19-15 SW","parcel":"301173-000001-000000","account":"730001268"},"geometry":{"type":"Polygon","coordinates":[[[-95.744017,36.126297],[-95.735068,36.126329],[-95.735051,36.118998],[-95.739557,36.119022],[-95.744044,36.119045],[-95.744017,36.126297]]]}},{"type":"Feature","properties":{"group":"Robson / Fair Oaks Ranch (MPD-6 applicants)","owner":"FAIR OAKS RANCH, LLC","acres":326.16,"legal":"17-19-15 SE: W2 NW :SE NW :E2 NE :S2 N2 SW NE :S2 SW NE LESS 63.84 AC TO TPA","parcel":"301171-000001-000000","account":"730001270"},"geometry":{"type":"Polygon","coordinates":[[[-95.739561,36.13354],[-95.739555,36.129928],[-95.735085,36.129902],[-95.735057,36.129908],[-95.73506,36.128995],[-95.732975,36.128983],[-95.732996,36.12634],[-95.733788,36.126344],[-95.733757,36.119274],[-95.733997,36.119275],[-95.733995,36.118993],[-95.735051,36.118998],[-95.735068,36.126329],[-95.744017,36.126297],[-95.744002,36.129923],[-95.74403,36.133549],[-95.739561,36.13354]],[[-95.726807,36.124142],[-95.729512,36.124147],[-95.729961,36.124214],[-95.730056,36.124237],[-95.730121,36.124253],[-95.73016,36.124262],[-95.7302,36.124272],[-95.73051,36.124347],[-95.730633,36.1244],[-95.730752,36.124459],[-95.730867,36.124522],[-95.730978,36.124591],[-95.731084,36.124664],[-95.731185,36.124742],[-95.73128,36.124824],[-95.73137,36.124911],[-95.731455,36.125001],[-95.731463,36.12501],[-95.731487,36.125039],[-95.731511,36.125068],[-95.731534,36.125097],[-95.731557,36.125126],[-95.731578,36.125156],[-95.7316,36.125186],[-95.731621,36.125217],[-95.731641,36.125247],[-95.73166,36.125278],[-95.731679,36.125309],[-95.731698,36.12534],[-95.731715,36.125372],[-95.731732,36.125404],[-95.731749,36.125436],[-95.731765,36.125468],[-95.731794,36.125533],[-95.731978,36.126546],[-95.73197,36.127627],[-95.73196,36.128977],[-95.730612,36.128969],[-95.730622,36.133334],[-95.730477,36.133361],[-95.729318,36.133357],[-95.729316,36.133534],[-95.726286,36.133535],[-95.726245,36.124918],[-95.726245,36.124893],[-95.726269,36.124894],[-95.726271,36.124892],[-95.72647,36.124692],[-95.726468,36.124417],[-95.726807,36.124142]],[[-95.726482,36.123073],[-95.726472,36.119209],[-95.728086,36.119298],[-95.728806,36.119389],[-95.730031,36.120944],[-95.730432,36.121667],[-95.730948,36.122341],[-95.731156,36.122754],[-95.730677,36.123341],[-95.726821,36.123347],[-95.726482,36.123073]],[[-95.731735,36.119163],[-95.732438,36.119166],[-95.732774,36.119442],[-95.732774,36.119571],[-95.732719,36.12012],[-95.732763,36.121219],[-95.732761,36.121497],[-95.731825,36.121716],[-95.730806,36.120467],[-95.729924,36.119347],[-95.730548,36.11935],[-95.731735,36.119163]]]}},{"type":"Feature","properties":{"group":"Atmoss LLC (Meta)","owner":"ATMOSS LLC","acres":39,"legal":"07-19-15 SE SE LESS 1AC SQUARE OUT OF THE EXTREME SE COR OF SE SCHOOL","parcel":"301074-000002-000000","account":"730000834"},"geometry":{"type":"Polygon","coordinates":[[[-95.744738,36.133547],[-95.748473,36.133535],[-95.74848,36.137167],[-95.744061,36.137181],[-95.744036,36.134123],[-95.744036,36.134122],[-95.744743,36.13412],[-95.744738,36.133547]]]}},{"type":"Feature","properties":{"group":"Atmoss LLC (Meta)","owner":"ATMOSS LLC","acres":335.37,"legal":"8-19-15 BEG AT THE SW COR OF SEC 8 - ON THE W LN OF SEC 8 N01'35'51\"W 2640.24' TOTHE W1/4 COR - N01'36'38\"W 1320.45' TO THE SW COR OF THE NW1/4 OF NW1/4 - N88'59'14\"E 1319.08' TO THE SE COR OF THE NW1","parcel":"301081-000001-000001","account":"730096245"},"geometry":{"type":"Polygon","coordinates":[[[-95.744031,36.133549],[-95.74409,36.140807],[-95.744119,36.144433],[-95.741249,36.144415],[-95.739567,36.144406],[-95.739581,36.146318],[-95.739594,36.14795],[-95.739594,36.147981],[-95.736132,36.14797],[-95.736126,36.147936],[-95.736114,36.147874],[-95.735255,36.14787],[-95.734799,36.147868],[-95.734698,36.147785],[-95.734716,36.144959],[-95.733357,36.143027],[-95.733011,36.14191],[-95.733028,36.139713],[-95.732892,36.139712],[-95.732911,36.137296],[-95.732938,36.133902],[-95.73332,36.133904],[-95.734582,36.133787],[-95.735885,36.133793],[-95.735887,36.133533],[-95.744031,36.133549]]]}},{"type":"Feature","properties":{"group":"Atmoss LLC (Meta)","owner":"ATMOSS LLC","acres":40,"legal":"07-19-15 SW SE","parcel":"301074-000004-000000","account":"730000852"},"geometry":{"type":"Polygon","coordinates":[[[-95.75295,36.137153],[-95.74848,36.137167],[-95.748473,36.133535],[-95.752943,36.133527],[-95.75295,36.137153]]]}},{"type":"Feature","properties":{"group":"Atmoss LLC (Meta)","owner":"ATMOSS LLC","acres":80,"legal":"07-19-15 N2 SE","parcel":"301074-000001-000000","account":"730000821"},"geometry":{"type":"Polygon","coordinates":[[[-95.74848,36.137167],[-95.75295,36.137153],[-95.75298,36.140779],[-95.75075,36.140786],[-95.748515,36.140793],[-95.74409,36.140807],[-95.744061,36.137181],[-95.74848,36.137167]]]}},{"type":"Feature","properties":{"group":"Robson / Fair Oaks Ranch (MPD-6 applicants)","owner":"FAIR OAKS RANCH, LLC","acres":105,"legal":"07-19-15 NW NE : SE NE : W 25 AC OF NE NE","parcel":"301071-000002-000000","account":"730000840"},"geometry":{"type":"Polygon","coordinates":[[[-95.745807,36.146441],[-95.745794,36.14444],[-95.744119,36.144433],[-95.74409,36.140807],[-95.748515,36.140793],[-95.748587,36.144419],[-95.750775,36.144412],[-95.75301,36.144405],[-95.753011,36.144586],[-95.75304,36.148031],[-95.750466,36.148036],[-95.750365,36.148036],[-95.745823,36.148013],[-95.745807,36.146441]]]}},{"type":"Feature","properties":{"group":"Atmoss LLC (Meta)","owner":"ATMOSS LLC","acres":20,"legal":"07-19-15 W2 SW NE","parcel":"301071-000003-000000","account":"730000854"},"geometry":{"type":"Polygon","coordinates":[[[-95.75301,36.144405],[-95.750775,36.144412],[-95.75075,36.140786],[-95.75298,36.140779],[-95.75301,36.144405]]]}},{"type":"Feature","properties":{"group":"Atmoss LLC (Meta)","owner":"ATMOSS LLC","acres":20,"legal":"07-19-15 E2 SW NE","parcel":"301071-000004-000000","account":"730000839"},"geometry":{"type":"Polygon","coordinates":[[[-95.750775,36.144412],[-95.748587,36.144419],[-95.748515,36.140793],[-95.75075,36.140786],[-95.750775,36.144412]]]}},{"type":"Feature","properties":{"group":"Youth camp west of Anthem (private)","owner":"Youth camp owner (private)","acres":6.85,"legal":"07-19-15 PT OF E2 OF E2 OF NE OF NE : E2 OF W2 OF E2 OF NE OF NE OF SEC 7 : W2 OF NW OF NW : W2 OF W2 OF E2 OF NW NW 8-19-15 E OF IND ME R DESC AS FOLLOWS: BEG AT SW COR OF E2 W2 E2 OF NE NE SEC 7 - N","parcel":"301071-000005-000000","account":"730000841"},"geometry":{"type":"Polygon","coordinates":[[[-95.744119,36.144433],[-95.745794,36.14444],[-95.745807,36.146441],[-95.74413,36.145738],[-95.744119,36.144433]]]}},{"type":"Feature","properties":{"group":"Youth camp west of Anthem (private)","owner":"Youth camp owner (private)","acres":8.15,"legal":"07-19-15 A TR DESC BEG AT THE NE COR OF SEC 7-19-15 - W ALONG THE N LINE SAID SEC 7 A DIST OF 495' S 591.25'- SESTERLY AT ANGLE OF 63 DEG 01' TO THE LEFT FROM THE PREVIOUS POINT A DISTANCE OF 555.46 '","parcel":"301071-000001-000000","account":"730000795"},"geometry":{"type":"Polygon","coordinates":[[[-95.745823,36.148013],[-95.744148,36.148004],[-95.744131,36.145894],[-95.74413,36.145738],[-95.745807,36.146441],[-95.745823,36.148013]]]}},{"type":"Feature","properties":{"group":"Youth camp west of Anthem (private)","owner":"Youth camp owner (private)","acres":160,"legal":"06-19-15 SE","parcel":"301064-000001-000000","account":"730000489"},"geometry":{"type":"Polygon","coordinates":[[[-95.75304,36.148031],[-95.753157,36.148031],[-95.753158,36.151664],[-95.753158,36.152268],[-95.753159,36.152941],[-95.753159,36.15469],[-95.753159,36.155268],[-95.752834,36.155267],[-95.752665,36.155267],[-95.752262,36.155266],[-95.752046,36.155265],[-95.751822,36.155264],[-95.751612,36.155264],[-95.751375,36.155263],[-95.751145,36.155262],[-95.750935,36.155262],[-95.750705,36.155261],[-95.750495,36.15526],[-95.750257,36.155259],[-95.75002,36.155259],[-95.749753,36.155258],[-95.749578,36.155257],[-95.74922,36.155256],[-95.748922,36.155255],[-95.748736,36.155255],[-95.748549,36.155254],[-95.748363,36.155254],[-95.748177,36.155253],[-95.74799,36.155253],[-95.747804,36.155252],[-95.747618,36.155251],[-95.747432,36.155251],[-95.747228,36.15525],[-95.744844,36.155243],[-95.744157,36.155241],[-95.744156,36.154341],[-95.744155,36.153435],[-95.744154,36.152528],[-95.744153,36.151622],[-95.744148,36.148004],[-95.745823,36.148013],[-95.750365,36.148036],[-95.750466,36.148036],[-95.75304,36.148031]]]}},{"type":"Feature","properties":{"group":"Youth camp west of Anthem (private)","owner":"Youth camp owner (private)","acres":8.65,"legal":"08-19-15 W 25 AC OF NW NW LESS 91/2 AC DESC BK 709 PG 661 LESS 6.85A C TO [private owner] DES IN BK 101 PG 101 SEC 8-19-15","parcel":"301082-000007-000000","account":"730000959"},"geometry":{"type":"Polygon","coordinates":[[[-95.741249,36.144415],[-95.744119,36.144433],[-95.74413,36.145738],[-95.74404,36.145737],[-95.74393,36.145737],[-95.743823,36.145736],[-95.741259,36.145723],[-95.741249,36.144415]]]}},{"type":"Feature","properties":{"group":"Youth camp west of Anthem (private)","owner":"Youth camp owner (private)","acres":6.85,"legal":"08-19-15 BEG NW COR OF NW NW SEC 8-19- 15-S 843.28'-NESTERLY AT AN ANGLE 43 DEG 57' TO LEFT FROM PREV POINT 178.78'- NESTERLY AT AN ANGLE 29 DEG 05' TO LEFT FROM PREV POINT 129.30'- NESTE RLY AT AN AN","parcel":"301082-000006-000000","account":"730000968"},"geometry":{"type":"Polygon","coordinates":[[[-95.744148,36.148004],[-95.742228,36.147994],[-95.74232,36.147938],[-95.742475,36.147845],[-95.74257,36.147769],[-95.74264,36.147694],[-95.742814,36.147477],[-95.742958,36.147247],[-95.743072,36.147006],[-95.743154,36.146757],[-95.743203,36.146501],[-95.743242,36.146386],[-95.743276,36.146316],[-95.743317,36.14625],[-95.743368,36.146187],[-95.743426,36.146128],[-95.743491,36.146075],[-95.743563,36.146028],[-95.74364,36.145987],[-95.743722,36.145953],[-95.743808,36.145926],[-95.743898,36.145907],[-95.743989,36.145895],[-95.744131,36.145894],[-95.744148,36.148004]]]}},{"type":"Feature","properties":{"group":"Robson / Fair Oaks Ranch (MPD-6 applicants)","owner":"FAIR OAKS RANCH, LLC","acres":158.24,"legal":"05-19-15 L1:L2 LESS NW 8.34 AC TO L2 TO [private owner] : S2 NW :L5 LESS W 3.55 AC OF W 9.55 AC OF L5 TO [private owner] LESS E 2.57 AC OF E 9.60 A C OF L6 TO GROVES :SWSE LESS 27.42AC TO TURNPIKE","parcel":"301051-000001-000000","account":"730000396"},"geometry":{"type":"Polygon","coordinates":[[[-95.735793,36.159967],[-95.73578,36.158923],[-95.735193,36.158922],[-95.735192,36.155213],[-95.736223,36.155216],[-95.736392,36.155217],[-95.737425,36.15522],[-95.738543,36.155224],[-95.739661,36.155227],[-95.740779,36.155231],[-95.741897,36.155234],[-95.743014,36.155237],[-95.744157,36.155241],[-95.744157,36.157816],[-95.744157,36.158716],[-95.743368,36.158712],[-95.743367,36.160532],[-95.735799,36.160499],[-95.735793,36.159967]],[[-95.730871,36.160477],[-95.73154,36.16048],[-95.731514,36.160929],[-95.731435,36.161143],[-95.731282,36.161396],[-95.731082,36.161608],[-95.730538,36.161991],[-95.729923,36.162314],[-95.729559,36.162518],[-95.726279,36.162509],[-95.726289,36.160456],[-95.727817,36.160463],[-95.728638,36.160467],[-95.728666,36.160467],[-95.730871,36.160477]],[[-95.733363,36.148147],[-95.735188,36.148151],[-95.735188,36.148915],[-95.735189,36.149808],[-95.735189,36.1507],[-95.73519,36.151599],[-95.732743,36.151592],[-95.732769,36.148237],[-95.733363,36.148147]]]}},{"type":"Feature","properties":{"group":"Robson / Fair Oaks Ranch (MPD-6 applicants)","owner":"FAIR OAKS RANCH, LLC","acres":120,"legal":"29-19-15 N2 SE: SW SE","parcel":"301294-000001-000000","account":"730001704"},"geometry":{"type":"Polygon","coordinates":[[[-95.730669,36.089941],[-95.735022,36.089962],[-95.73503,36.0936],[-95.735047,36.097207],[-95.734962,36.097207],[-95.73393,36.097208],[-95.733766,36.097208],[-95.732957,36.097214],[-95.730545,36.097229],[-95.726045,36.09718],[-95.726078,36.093565],[-95.727421,36.09358],[-95.72954,36.093605],[-95.730674,36.093618],[-95.730669,36.089941]]]}},{"type":"Feature","properties":{"group":"Robson / Fair Oaks Ranch (MPD-6 applicants)","owner":"FAIR OAKS RANCH, LLC","acres":240,"legal":"20-19-15 NE:N2 SE LESS 20.63AC TO TURNPIKE","parcel":"301201-000001-000000","account":"730001340"},"geometry":{"type":"Polygon","coordinates":[[[-95.726598,36.111804],[-95.726259,36.111121],[-95.726175,36.111121],[-95.726168,36.108074],[-95.726168,36.108054],[-95.73139,36.108083],[-95.732203,36.108094],[-95.733438,36.108091],[-95.733875,36.108093],[-95.734215,36.108094],[-95.734418,36.108095],[-95.734621,36.108096],[-95.734824,36.108097],[-95.735097,36.108098],[-95.735075,36.109873],[-95.73506,36.11214],[-95.735049,36.113755],[-95.735027,36.115303],[-95.735025,36.115375],[-95.735026,36.115582],[-95.735028,36.115766],[-95.735029,36.11595],[-95.73503,36.116134],[-95.735032,36.116318],[-95.735033,36.116502],[-95.735035,36.116686],[-95.735036,36.11687],[-95.735037,36.117054],[-95.735039,36.117238],[-95.73504,36.117422],[-95.735042,36.117606],[-95.735043,36.11779],[-95.735045,36.117974],[-95.735046,36.118159],[-95.735047,36.118343],[-95.735049,36.118527],[-95.73505,36.118711],[-95.735052,36.118918],[-95.735051,36.118998],[-95.733996,36.118993],[-95.733996,36.118876],[-95.729706,36.118735],[-95.726603,36.11479],[-95.726598,36.111804]],[[-95.726218,36.118754],[-95.726204,36.116477],[-95.727985,36.118743],[-95.726218,36.118754]]]}},{"type":"Feature","properties":{"group":"Z-7851 phase-2 applicant owners","owner":"Private owner (see Assessor record)","acres":1,"legal":"SWAN LK AD TO SR EST LOT 3 BLK 1","parcel":"001715-001003-000000","account":"730011071"},"geometry":{"type":"Polygon","coordinates":[[[-95.739093,36.110923],[-95.73909,36.11069],[-95.739496,36.110691],[-95.739499,36.110925],[-95.739093,36.110923]]]}},{"type":"Feature","properties":{"group":"Oklahoma Turnpike Authority","owner":"OKLAHOMA TURNPIKE AUTHORITY","acres":81.36,"legal":"17-19-15","parcel":"301171-000002-001000","account":"730085656"},"geometry":{"type":"Polygon","coordinates":[[[-95.730691,36.133325],[-95.731456,36.133222],[-95.731758,36.133223],[-95.731771,36.131531],[-95.73196,36.128977],[-95.73197,36.127627],[-95.731978,36.126546],[-95.731794,36.125533],[-95.731744,36.125425],[-95.731686,36.125319],[-95.731621,36.125216],[-95.73155,36.125116],[-95.731471,36.12502],[-95.731387,36.124927],[-95.731296,36.124838],[-95.731199,36.124753],[-95.731096,36.124673],[-95.730988,36.124597],[-95.730876,36.124527],[-95.730758,36.124461],[-95.730636,36.124401],[-95.730511,36.124347],[-95.729961,36.124214],[-95.729513,36.124147],[-95.726808,36.124142],[-95.726469,36.124417],[-95.726471,36.124691],[-95.726271,36.124892],[-95.726269,36.124893],[-95.726246,36.124893],[-95.726219,36.118987],[-95.733996,36.118993],[-95.733997,36.119275],[-95.733758,36.119274],[-95.733789,36.126344],[-95.732997,36.126339],[-95.732975,36.128983],[-95.732943,36.133183],[-95.733282,36.133186],[-95.735173,36.133344],[-95.73589,36.133349],[-95.735887,36.133533],[-95.735159,36.133533],[-95.730693,36.133535],[-95.73062,36.133535],[-95.729317,36.133534],[-95.729318,36.133357],[-95.730477,36.133361],[-95.730622,36.133334],[-95.730691,36.133325]],[[-95.730949,36.122341],[-95.730433,36.121667],[-95.730032,36.120944],[-95.728807,36.119389],[-95.728087,36.119298],[-95.726472,36.119208],[-95.726483,36.123073],[-95.726821,36.123347],[-95.730678,36.123341],[-95.731157,36.122754],[-95.730949,36.122341]],[[-95.730806,36.120467],[-95.731825,36.121716],[-95.732761,36.121497],[-95.732762,36.121219],[-95.732719,36.12012],[-95.732774,36.119571],[-95.732774,36.119442],[-95.732438,36.119166],[-95.731735,36.119163],[-95.730548,36.11935],[-95.729924,36.119347],[-95.730806,36.120467]]]}},{"type":"Feature","properties":{"group":"Oklahoma Turnpike Authority","owner":"OKLAHOMA TURNPIKE AUTHORITY","acres":20.63,"legal":"PT OF NE NE (TURNPIKE/NO LEGAL)","parcel":"301201-000000-000000","account":"730085657"},"geometry":{"type":"Polygon","coordinates":[[[-95.726175,36.111121],[-95.726259,36.111121],[-95.726598,36.111804],[-95.726603,36.11479],[-95.729706,36.118735],[-95.733996,36.118876],[-95.733996,36.118993],[-95.726219,36.118987],[-95.726218,36.118795],[-95.726218,36.118754],[-95.727985,36.118743],[-95.726204,36.116477],[-95.726176,36.111503],[-95.726175,36.111121]]]}},{"type":"Feature","properties":{"group":"Robson / Fair Oaks Ranch (MPD-6 applicants)","owner":"FAIR OAKS RANCH LLC","acres":72.48,"legal":"17-19-15 NW NE: NE NW :N2 N2 SW NE","parcel":"301171-000002-000000","account":"730001267"},"geometry":{"type":"Polygon","coordinates":[[[-95.735889,36.133422],[-95.73589,36.133349],[-95.735174,36.133344],[-95.733283,36.133185],[-95.732944,36.133183],[-95.732975,36.128983],[-95.735061,36.128995],[-95.735057,36.129908],[-95.735085,36.129902],[-95.739555,36.129928],[-95.739562,36.13354],[-95.735887,36.133533],[-95.735889,36.133422]],[[-95.730612,36.128969],[-95.731961,36.128977],[-95.731901,36.129808],[-95.731771,36.131531],[-95.731771,36.131573],[-95.731771,36.131601],[-95.731769,36.131811],[-95.731758,36.133223],[-95.731456,36.133222],[-95.730692,36.133325],[-95.730623,36.133334],[-95.730612,36.128969]]]}},{"type":"Feature","properties":{"group":"Oklahoma Turnpike Authority","owner":"OKLAHOMA TURNPIKE AUTHORITY","acres":85.74,"legal":"08--19-15","parcel":"301081-000001-001000","account":"730085655"},"geometry":{"type":"Polygon","coordinates":[[[-95.728527,36.147827],[-95.729694,36.147709],[-95.729711,36.14515],[-95.731143,36.143576],[-95.731745,36.142178],[-95.731772,36.138695],[-95.731854,36.138252],[-95.731887,36.134035],[-95.729315,36.133762],[-95.729316,36.133594],[-95.729317,36.133534],[-95.73062,36.133535],[-95.730692,36.133535],[-95.73516,36.133533],[-95.735887,36.133533],[-95.735885,36.133793],[-95.734582,36.133787],[-95.73332,36.133904],[-95.732938,36.133902],[-95.732911,36.137296],[-95.732892,36.139712],[-95.733028,36.139713],[-95.733011,36.14191],[-95.733357,36.143027],[-95.734716,36.144959],[-95.734698,36.147785],[-95.734799,36.147868],[-95.736114,36.147874],[-95.736126,36.147936],[-95.736132,36.14797],[-95.735188,36.147967],[-95.732688,36.147959],[-95.730682,36.147971],[-95.728498,36.147983],[-95.728527,36.147827]]]}},{"type":"Feature","properties":{"group":"Youth camp west of Anthem (private)","owner":"Youth camp owner (private)","acres":9.5,"legal":"08-19-15 TR IN NW4 OF NW4 8/19/15 BEG PT 621.55' E OF NW CORNER OF SEC 8 - E TO E LINE OF W2 OF W2 OF E2 OF NW4 OF NW4 SEC 8 - S 843.28' PAR TO W BNDRY OF SD SEC 8 - NETERLY DIRECTION AT AN ANGLE OF 4","parcel":"301082-000005-000000","account":"730000889"},"geometry":{"type":"Polygon","coordinates":[[[-95.741504,36.147958],[-95.741277,36.147957],[-95.741265,36.146477],[-95.741259,36.145723],[-95.743823,36.145736],[-95.743717,36.145807],[-95.743616,36.145842],[-95.74352,36.145886],[-95.743431,36.145938],[-95.743348,36.145997],[-95.743273,36.146063],[-95.743208,36.146134],[-95.743151,36.146211],[-95.743105,36.146292],[-95.74307,36.146376],[-95.743045,36.146463],[-95.743028,36.14653],[-95.742976,36.14677],[-95.742893,36.147005],[-95.742781,36.147231],[-95.742639,36.147446],[-95.742436,36.147684],[-95.742365,36.147729],[-95.742236,36.147797],[-95.7421,36.147854],[-95.741957,36.147899],[-95.741809,36.147932],[-95.741657,36.147951],[-95.741504,36.147958]]]}},{"type":"Feature","properties":{"group":"Oklahoma Turnpike Authority","owner":"OKLAHOMA TURNPIKE AUTHORITY","acres":41.2,"legal":"05-19-15 LAND ADJACENT TO THE CREEK NATION TURNPIKE IN THE NE AND SE OF SEC LESS BEG AT NW COR OF SE - N88'50'35.7\"E ALNG THE N LN OF SE DIS 764.26' - S04'11.1'6.3\"E DIS 516.21' - S15'43'26.3\"W DIS 20","parcel":"301051-000006-000000","account":"730084902"},"geometry":{"type":"Polygon","coordinates":[[[-95.733333,36.160488],[-95.73154,36.16048],[-95.731631,36.15958],[-95.731637,36.159525],[-95.731643,36.159301],[-95.731624,36.159179],[-95.731569,36.159094],[-95.731545,36.159084],[-95.731455,36.159005],[-95.731086,36.159004],[-95.73096,36.159006],[-95.730835,36.159015],[-95.730711,36.159031],[-95.730588,36.159053],[-95.730467,36.159081],[-95.730349,36.159116],[-95.730234,36.159157],[-95.730122,36.159203],[-95.730014,36.159256],[-95.72991,36.159313],[-95.729812,36.159376],[-95.729718,36.159444],[-95.72963,36.159517],[-95.729548,36.159594],[-95.728812,36.160333],[-95.728741,36.160401],[-95.728666,36.160467],[-95.728638,36.160467],[-95.727817,36.160463],[-95.727989,36.160376],[-95.728171,36.160256],[-95.728327,36.160106],[-95.728474,36.159971],[-95.728696,36.159729],[-95.728807,36.159608],[-95.728834,36.159578],[-95.728917,36.159487],[-95.729064,36.159352],[-95.729158,36.15927],[-95.729211,36.159224],[-95.729404,36.159061],[-95.729413,36.159054],[-95.729415,36.159052],[-95.729576,36.158963],[-95.729713,36.158871],[-95.729871,36.158804],[-95.729876,36.158801],[-95.729976,36.158767],[-95.730198,36.158711],[-95.730399,36.158652],[-95.730564,36.158623],[-95.730714,36.158592],[-95.73092,36.158582],[-95.73093,36.158582],[-95.731779,36.158568],[-95.731783,36.158074],[-95.731802,36.155203],[-95.731801,36.1516],[-95.730683,36.151597],[-95.730682,36.147971],[-95.732688,36.147959],[-95.733719,36.147962],[-95.735188,36.147967],[-95.735188,36.148036],[-95.735188,36.148151],[-95.733363,36.148147],[-95.732769,36.148237],[-95.732767,36.148489],[-95.732743,36.151592],[-95.732721,36.151998],[-95.732801,36.152548],[-95.732795,36.153282],[-95.732588,36.15383],[-95.732603,36.155205],[-95.732668,36.156329],[-95.732706,36.15699],[-95.732731,36.157412],[-95.732731,36.157545],[-95.732731,36.157991],[-95.732731,36.158496],[-95.732832,36.158579],[-95.733191,36.15858],[-95.733331,36.158588],[-95.733431,36.158597],[-95.733517,36.158607],[-95.733587,36.158617],[-95.733677,36.158632],[-95.733754,36.158648],[-95.733841,36.158667],[-95.733913,36.158685],[-95.734017,36.158715],[-95.734119,36.158748],[-95.734245,36.158794],[-95.734368,36.158845],[-95.734488,36.158902],[-95.734604,36.158963],[-95.734716,36.15903],[-95.734823,36.159101],[-95.734926,36.159176],[-95.734952,36.159197],[-95.735194,36.159389],[-95.7352,36.159491],[-95.735194,36.159938],[-95.734854,36.159668],[-95.734838,36.159655],[-95.734832,36.159649],[-95.734656,36.159503],[-95.734388,36.15933],[-95.734376,36.159323],[-95.734375,36.159323],[-95.734364,36.159317],[-95.734363,36.159316],[-95.734351,36.15931],[-95.734351,36.15931],[-95.734339,36.159304],[-95.734339,36.159303],[-95.734327,36.159297],[-95.734327,36.159297],[-95.734315,36.159291],[-95.734314,36.159291],[-95.734302,36.159285],[-95.734302,36.159284],[-95.73429,36.159278],[-95.73429,36.159278],[-95.734277,36.159272],[-95.734277,36.159272],[-95.734265,36.159266],[-95.734265,36.159266],[-95.734252,36.15926],[-95.734252,36.15926],[-95.73424,36.159254],[-95.73424,36.159254],[-95.734227,36.159248],[-95.734227,36.159248],[-95.734215,36.159242],[-95.734214,36.159242],[-95.734202,36.159236],[-95.734202,36.159236],[-95.734189,36.15923],[-95.734189,36.15923],[-95.734176,36.159225],[-95.734176,36.159225],[-95.734163,36.159219],[-95.734163,36.159219],[-95.734151,36.159214],[-95.734151,36.159214],[-95.734138,36.159208],[-95.734137,36.159208],[-95.734125,36.159203],[-95.734125,36.159203],[-95.734112,36.159197],[-95.734112,36.159197],[-95.734099,36.159192],[-95.734098,36.159192],[-95.734086,36.159187],[-95.734085,36.159187],[-95.734072,36.159182],[-95.734072,36.159181],[-95.73406,36.159177],[-95.734059,36.159176],[-95.734046,36.159171],[-95.734046,36.159171],[-95.734033,36.159166],[-95.734033,36.159166],[-95.73402,36.159162],[-95.734019,36.159161],[-95.734006,36.159157],[-95.734006,36.159157],[-95.733993,36.159152],[-95.733993,36.159152],[-95.73398,36.159147],[-95.733979,36.159147],[-95.733967,36.159143],[-95.733966,36.159142],[-95.733953,36.159138],[-95.733953,36.159138],[-95.733939,36.159133],[-95.733939,36.159133],[-95.733926,36.159129],[-95.733925,36.159129],[-95.733912,36.159125],[-95.733912,36.159124],[-95.733899,36.15912],[-95.733899,36.15912],[-95.733885,36.159116],[-95.733885,36.159116],[-95.733872,36.159112],[-95.733871,36.159112],[-95.733858,36.159108],[-95.733858,36.159108],[-95.733844,36.159104],[-95.733844,36.159104],[-95.73383,36.1591],[-95.73383,36.1591],[-95.733816,36.159096],[-95.733816,36.159096],[-95.733803,36.159092],[-95.733803,36.159092],[-95.733789,36.159088],[-95.733789,36.159088],[-95.733775,36.159084],[-95.733775,36.159084],[-95.733761,36.159081],[-95.73376,36.159081],[-95.733747,36.159077],[-95.733747,36.159077],[-95.733733,36.159074],[-95.733733,36.159074],[-95.733719,36.15907],[-95.733719,36.15907],[-95.733706,36.159067],[-95.733705,36.159067],[-95.733691,36.159064],[-95.733691,36.159064],[-95.733677,36.15906],[-95.733677,36.15906],[-95.733663,36.159057],[-95.733663,36.159057],[-95.733649,36.159054],[-95.733649,36.159054],[-95.733635,36.159051],[-95.733635,36.159051],[-95.733621,36.159048],[-95.733621,36.159048],[-95.733607,36.159045],[-95.733606,36.159045],[-95.733593,36.159042],[-95.733592,36.159042],[-95.733578,36.15904],[-95.733578,36.15904],[-95.733564,36.159037],[-95.733564,36.159037],[-95.73355,36.159034],[-95.73355,36.159034],[-95.733536,36.159032],[-95.733536,36.159032],[-95.733521,36.159029],[-95.733521,36.159029],[-95.733507,36.159027],[-95.733507,36.159027],[-95.733493,36.159025],[-95.733492,36.159025],[-95.733478,36.159022],[-95.733478,36.159022],[-95.733464,36.15902],[-95.733464,36.15902],[-95.73345,36.159018],[-95.73345,36.159018],[-95.733436,36.159016],[-95.733435,36.159016],[-95.733421,36.159014],[-95.733421,36.159014],[-95.733407,36.159012],[-95.733406,36.159012],[-95.733392,36.15901],[-95.733392,36.15901],[-95.733378,36.159009],[-95.733378,36.159009],[-95.733364,36.159007],[-95.733363,36.159007],[-95.733349,36.159005],[-95.733349,36.159005],[-95.733335,36.159004],[-95.733334,36.159004],[-95.73332,36.159002],[-95.733319,36.159002],[-95.733305,36.159001],[-95.733305,36.159001],[-95.733291,36.159],[-95.733291,36.159],[-95.733276,36.158998],[-95.733276,36.158998],[-95.733262,36.158997],[-95.733262,36.158997],[-95.733247,36.158996],[-95.733247,36.158996],[-95.733233,36.158995],[-95.733233,36.158995],[-95.733218,36.158994],[-95.733218,36.158994],[-95.733204,36.158993],[-95.733203,36.158993],[-95.733189,36.158992],[-95.732767,36.158991],[-95.732739,36.159147],[-95.732754,36.159349],[-95.73282,36.159639],[-95.732899,36.159838],[-95.732906,36.159862],[-95.732948,36.159985],[-95.733079,36.160205],[-95.733333,36.160488]]]}},{"type":"Feature","properties":{"group":"Robson / Fair Oaks Ranch (MPD-6 applicants)","owner":"FAIR OAKS RANCH LLC","acres":22.21,"legal":"5-19-15 A TR OR PARCEL OF LAND LYING IN LOT 7 BEG AT THE SW COR OF SD SW NE -04DEG 11'16.3\"W A DIST OF 804.25 -NOODEG 58'30.9\"W A DIST 394.62' -N45DEG 58'30.9\"W A DIST OF 42.43' -S89DEG 01'29.1\"W A DI","parcel":"301051-000004-001000","account":"730075700"},"geometry":{"type":"Polygon","coordinates":[[[-95.733331,36.158588],[-95.733191,36.15858],[-95.732832,36.158579],[-95.732731,36.158496],[-95.732731,36.157991],[-95.732731,36.157545],[-95.732731,36.157412],[-95.732706,36.15699],[-95.732668,36.156329],[-95.732603,36.155205],[-95.735192,36.155213],[-95.735193,36.158922],[-95.735194,36.15936],[-95.735194,36.159389],[-95.734952,36.159197],[-95.734926,36.159176],[-95.734823,36.159101],[-95.734716,36.15903],[-95.734604,36.158963],[-95.734488,36.158902],[-95.734368,36.158845],[-95.734245,36.158794],[-95.734119,36.158748],[-95.734017,36.158715],[-95.733913,36.158685],[-95.733841,36.158667],[-95.733754,36.158648],[-95.733677,36.158632],[-95.733587,36.158617],[-95.733517,36.158607],[-95.733431,36.158597],[-95.733331,36.158588]]]}},{"type":"Feature","properties":{"group":"Robson / Fair Oaks Ranch (MPD-6 applicants)","owner":"FAIR OAKS RANCH LLC","acres":22.8,"legal":"5-19-15 BEG AT NW COR OF SE - N88'50'35.7\"E ALNG THE N LN OF SE DIS 764.26' - S04'11.1'6.3\"E DIS 516.21' - S15'43'26.3\"W DIS 208.81' - S00'58'30.9\"E DIS 266.99' - S08'06'01.0\"E DIS 201.56' - S00'58'30","parcel":"301051-000006-000001","account":"730096136"},"geometry":{"type":"Polygon","coordinates":[[[-95.732743,36.151592],[-95.73519,36.151599],[-95.73519,36.152506],[-95.735191,36.153413],[-95.735191,36.154319],[-95.735192,36.155213],[-95.732603,36.155205],[-95.732588,36.15383],[-95.732795,36.153282],[-95.732801,36.152548],[-95.732721,36.151998],[-95.732743,36.151592]]]}},{"type":"Feature","properties":{"group":"Robson / Fair Oaks Ranch (MPD-6 applicants)","owner":"FAIR OAKS RANCH LLC","acres":1.17,"legal":"5-19-15 BEG AT THE SE COR OF SD LOT 6 - N01'53'12.2\"W ALNG THE E LN OF SD LOT 6 DIS 207.27' - N46'24'09.1W DIS 212.71' - ON A CURVE TO THE LEFT HAVING A RADIUS OF 626.20' A DIS 33.57' TO PT ON THE W P","parcel":"301052-000007-000001","account":"730096137"},"geometry":{"type":"Polygon","coordinates":[[[-95.735193,36.158922],[-95.73578,36.158923],[-95.735793,36.159967],[-95.73571,36.159904],[-95.7352,36.159491],[-95.735194,36.159389],[-95.735193,36.158922]]]}},{"type":"Feature","properties":{"group":"Oklahoma Turnpike Authority","owner":"OKLAHOMA TURNPIKE AUTHORITY","acres":0.19,"legal":"05-19-15 BEG AT NE COR OF L 4 - S01.5402.13E 43.80' - N84.3000.07W 373.85' TO N LINE - N 88.4556E 370.42' TO POB CONTAINING .19 AC BK 1059 PG 9","parcel":"301052-000003-000001","account":"730084824"},"geometry":{"type":"Polygon","coordinates":[[[-95.739722,36.162413],[-95.739721,36.162293],[-95.741018,36.162419],[-95.739722,36.162413]]]}},{"type":"Feature","properties":{"group":"Oklahoma Turnpike Authority","owner":"OKLAHOMA TURNPIKE AUTHORITY","acres":1.33,"legal":"05-19-15 E 2.50 AC OF E 9.60 OF L-6 LESS BEG AT THE SE COR OF SD LOT 6 - N01'53'12.2\"W ALNG THE E LN OF SD LOT 6 DIS 207.27' - N46'24'09.1W DIS 212.71' - ON A CURVE TO THE LEFT HAVING A RADIUS OF 626.","parcel":"301052-000007-000000","account":"730000415"},"geometry":{"type":"Polygon","coordinates":[[[-95.735194,36.159938],[-95.7352,36.159491],[-95.73571,36.159904],[-95.735793,36.159967],[-95.735799,36.160499],[-95.735194,36.160496],[-95.735194,36.159938]]]}},{"type":"Feature","properties":{"group":"Robson / Fair Oaks Ranch (MPD-6 applicants)","owner":"Robson family (private owner)","acres":40,"legal":"28-19-15 NW SW","parcel":"301283-000002-000000","account":"730001680"},"geometry":{"type":"Polygon","coordinates":[[[-95.721882,36.093544],[-95.726078,36.093565],[-95.726045,36.09718],[-95.721577,36.097157],[-95.721606,36.093903],[-95.721608,36.093745],[-95.72176,36.093543],[-95.721882,36.093544]]]}},{"type":"Feature","properties":{"group":"Robson / Fair Oaks Ranch (MPD-6 applicants)","owner":"FAIR OAKS RANCH, LLC","acres":514.15,"legal":"28-19-15 N2:SE LESS 26AC TO TURNPIKE (CR518) 28-19-15 E2 SW: SW SW LESS 59.85AC TO TURNPIKE","parcel":"301281-000001-000000","account":"730001683"},"geometry":{"type":"Polygon","coordinates":[[[-95.714732,36.089885],[-95.717067,36.089893],[-95.717064,36.09256],[-95.719348,36.095521],[-95.719321,36.097157],[-95.719209,36.104413],[-95.718067,36.104407],[-95.717222,36.104402],[-95.708286,36.104356],[-95.708282,36.103445],[-95.70828,36.102989],[-95.708278,36.102534],[-95.708277,36.102167],[-95.708277,36.102078],[-95.708276,36.101996],[-95.708275,36.101622],[-95.708273,36.101167],[-95.708271,36.100711],[-95.708258,36.097214],[-95.708245,36.094051],[-95.708243,36.093477],[-95.708241,36.093025],[-95.708239,36.092571],[-95.708236,36.091664],[-95.708233,36.090939],[-95.708244,36.089889],[-95.712696,36.089874],[-95.714732,36.089885]],[[-95.722749,36.089922],[-95.7261,36.089939],[-95.726084,36.092468],[-95.726078,36.093565],[-95.721882,36.093544],[-95.72228,36.093022],[-95.722246,36.090369],[-95.722745,36.09037],[-95.722749,36.089922]],[[-95.720626,36.097153],[-95.720633,36.096671],[-95.720657,36.095153],[-95.721606,36.093903],[-95.721577,36.097157],[-95.726045,36.09718],[-95.726133,36.104461],[-95.7207,36.10442],[-95.720538,36.102783],[-95.720541,36.102575],[-95.720626,36.097153]]]}},{"type":"Feature","properties":{"group":"Oklahoma Turnpike Authority","owner":"OKLAHOMA TURNPIKE AUTHORITY","acres":75.71,"legal":"21-19-15","parcel":"301211-000001-001000","account":"730085658"},"geometry":{"type":"Polygon","coordinates":[[[-95.726204,36.116477],[-95.724946,36.11488],[-95.723473,36.11551],[-95.72287,36.115849],[-95.7226,36.115533],[-95.723131,36.115234],[-95.724604,36.114291],[-95.723069,36.112339],[-95.721572,36.112198],[-95.72124,36.111675],[-95.721217,36.11164],[-95.719807,36.109419],[-95.719678,36.109134],[-95.719182,36.108038],[-95.718597,36.106747],[-95.718067,36.104407],[-95.719209,36.104413],[-95.7207,36.10442],[-95.720943,36.105909],[-95.721249,36.106941],[-95.721921,36.108052],[-95.723811,36.111179],[-95.725133,36.111695],[-95.725923,36.111699],[-95.725958,36.111504],[-95.7261,36.111504],[-95.726176,36.111503],[-95.726204,36.116477]],[[-95.725313,36.118793],[-95.726218,36.118795],[-95.726219,36.118987],[-95.725313,36.118985],[-95.725313,36.118981],[-95.725313,36.118793]]]}},{"type":"Feature","properties":{"group":"Robson / Fair Oaks Ranch (MPD-6 applicants)","owner":"Robson family (private owner)","acres":351,"legal":"21-19-15 ALL OF SEC 21-19-15 LESS 75.71 AC TO TPA: LESS SE AND N2 SW","parcel":"301211-000001-000000","account":"730001366"},"geometry":{"type":"Polygon","coordinates":[[[-95.708343,36.11892],[-95.708314,36.111608],[-95.717252,36.111655],[-95.720993,36.111674],[-95.72124,36.111675],[-95.721572,36.112198],[-95.723069,36.112339],[-95.724604,36.114291],[-95.723131,36.115234],[-95.7226,36.115533],[-95.72287,36.115849],[-95.723473,36.11551],[-95.724946,36.11488],[-95.726177,36.116443],[-95.726204,36.116477],[-95.726218,36.118754],[-95.726218,36.118795],[-95.725313,36.118793],[-95.725313,36.118981],[-95.725298,36.118981],[-95.717333,36.118924],[-95.716224,36.118917],[-95.708343,36.11892]],[[-95.7207,36.10442],[-95.726133,36.104461],[-95.726139,36.105281],[-95.726144,36.105924],[-95.726146,36.106246],[-95.726148,36.106562],[-95.726168,36.108054],[-95.726168,36.108074],[-95.72193,36.108053],[-95.721921,36.108052],[-95.721249,36.106941],[-95.720943,36.105909],[-95.7207,36.10442]],[[-95.717222,36.104402],[-95.718067,36.104407],[-95.718078,36.10447],[-95.718597,36.106747],[-95.719182,36.108038],[-95.717237,36.108028],[-95.717222,36.104402]]]}},{"type":"Feature","properties":{"group":"Robson / Fair Oaks Ranch (MPD-6 applicants)","owner":"FAIR OAKS RANCH, LLC","acres":213.29,"legal":"21-19-15 SE: N2 SW LESS 26.71 AC TO TPA","parcel":"301211-000001-000001","account":"730090934"},"geometry":{"type":"Polygon","coordinates":[[[-95.708314,36.111608],[-95.708286,36.104356],[-95.717222,36.104402],[-95.717237,36.108028],[-95.719182,36.108038],[-95.719678,36.109134],[-95.719807,36.109419],[-95.721217,36.11164],[-95.72124,36.111675],[-95.720993,36.111674],[-95.717252,36.111655],[-95.708314,36.111608]],[[-95.72193,36.108053],[-95.726168,36.108074],[-95.726175,36.111121],[-95.726176,36.111503],[-95.7261,36.111504],[-95.725958,36.111504],[-95.725923,36.111699],[-95.725133,36.111695],[-95.723811,36.111179],[-95.721921,36.108052],[-95.72193,36.108053]]]}},{"type":"Feature","properties":{"group":"Robson / Fair Oaks Ranch (MPD-6 applicants)","owner":"FAIR OAKS RANCH, LLC","acres":634.43,"legal":"16-19-15 ALL OF SEC LESS 2.58AC TO [Robson family member] BK749 PG672 LESS 2.57 AC TO TURNPIKE","parcel":"301161-000001-000000","account":"730001261"},"geometry":{"type":"Polygon","coordinates":[[[-95.726286,36.133535],[-95.7084,36.133472],[-95.708343,36.11892],[-95.716224,36.118917],[-95.716229,36.119816],[-95.717082,36.119819],[-95.717082,36.119912],[-95.717339,36.119914],[-95.717333,36.118924],[-95.725313,36.118981],[-95.725313,36.118985],[-95.725312,36.119165],[-95.725979,36.119166],[-95.725992,36.124619],[-95.726162,36.124893],[-95.726246,36.124893],[-95.726286,36.133535]]]}},{"type":"Feature","properties":{"group":"Oklahoma Turnpike Authority","owner":"OKLAHOMA TURNPIKE AUTHORITY","acres":2.57,"legal":"","parcel":"301163-000000-000000","account":"730085663"},"geometry":{"type":"Polygon","coordinates":[[[-95.725992,36.124619],[-95.725979,36.119166],[-95.725312,36.119165],[-95.725313,36.118985],[-95.726219,36.118987],[-95.726246,36.124893],[-95.726162,36.124893],[-95.725992,36.124619]]]}},{"type":"Feature","properties":{"group":"Robson / Fair Oaks Ranch (MPD-6 applicants)","owner":"FAIR OAKS RANCH, LLC","acres":640,"legal":"09-19-15 ALL OF SEC","parcel":"301091-000001-000000","account":"730000981"},"geometry":{"type":"Polygon","coordinates":[[[-95.7084,36.133472],[-95.726286,36.133535],[-95.726286,36.133596],[-95.726258,36.147981],[-95.708481,36.147869],[-95.708463,36.147869],[-95.708435,36.140727],[-95.7084,36.133472]]]}},{"type":"Feature","properties":{"group":"Robson / Fair Oaks Ranch (MPD-6 applicants)","owner":"FAIR OAKS RANCH, LLC","acres":178.89,"legal":"08-19-15 E2: SW: S2 NW : NE NW LESS BEG AT THE SW COR OF SEC 8 - ON THE W LN OF SEC 8 N01'35'51\"W 2640.24' TO THE W1/4 COR - N01'36'38\"W 1320.45' TO THE SW COR OF THE NW1/4 OF NW1/4 - N88'59'14\"E 1319","parcel":"301081-000001-000000","account":"730000975"},"geometry":{"type":"Polygon","coordinates":[[[-95.726286,36.133535],[-95.729317,36.133534],[-95.729316,36.133594],[-95.729315,36.133762],[-95.731887,36.134035],[-95.731854,36.138252],[-95.731772,36.138695],[-95.731745,36.142178],[-95.731143,36.143576],[-95.729711,36.14515],[-95.729694,36.147709],[-95.728527,36.147827],[-95.728513,36.147903],[-95.728498,36.147983],[-95.726258,36.147981],[-95.726286,36.133596],[-95.726286,36.133535]]]}},{"type":"Feature","properties":{"group":"Robson / Fair Oaks Ranch (MPD-6 applicants)","owner":"FAIR OAKS RANCH, LLC","acres":625.99,"legal":"04-19-15 E2 OF L-1:2:3:4:5:6:7:8:S2 N2 S2 LESS 2.96AC TO TURNPIKE","parcel":"301041-000003-000000","account":"730000883"},"geometry":{"type":"Polygon","coordinates":[[[-95.710771,36.16239],[-95.708499,36.162373],[-95.708463,36.147869],[-95.708463,36.147869],[-95.726258,36.147981],[-95.726325,36.152497],[-95.726313,36.155185],[-95.726289,36.160456],[-95.726279,36.162509],[-95.713009,36.162372],[-95.713007,36.161628],[-95.713004,36.160566],[-95.710767,36.160543],[-95.710768,36.161612],[-95.710771,36.16239]]]}},{"type":"Feature","properties":{"group":"Robson / Fair Oaks Ranch (MPD-6 applicants)","owner":"ROB-WAL LLC","acres":50,"legal":"5-19-15 S2 S2 NE SE:SE SE BK 1677 PG 689","parcel":"301054-000001-002000","account":"730079467"},"geometry":{"type":"Polygon","coordinates":[[[-95.728498,36.147983],[-95.730682,36.147971],[-95.730683,36.151597],[-95.730684,36.152472],[-95.726325,36.152497],[-95.726258,36.147981],[-95.728498,36.147983]]]}},{"type":"Feature","properties":{"group":"Robson / Fair Oaks Ranch (MPD-6 applicants)","owner":"ROB-WAL LLC","acres":62.98,"legal":"05-19-15 TR 1 BEG NE COR L7-S88'40'40\"W ALONG NRLY LINE FOR 185.87' -S1'17'28\"E ALONG ERLY LINE FOR 289.07' -S2'27'40\"W ALONG ERLY LINE FOR 216.93' -S 44'15'26\"E ALONG E LINE FOR 41.14'-N89'01'29\"E AL","parcel":"301051-000004-000000","account":"730000381"},"geometry":{"type":"Polygon","coordinates":[[[-95.726313,36.155185],[-95.731802,36.155203],[-95.731779,36.158568],[-95.73093,36.158582],[-95.73092,36.158582],[-95.730714,36.158592],[-95.730564,36.158623],[-95.730399,36.158652],[-95.730198,36.158711],[-95.729976,36.158767],[-95.729876,36.158801],[-95.729871,36.158804],[-95.729713,36.158871],[-95.729576,36.158963],[-95.729415,36.159052],[-95.729413,36.159054],[-95.729404,36.159061],[-95.729211,36.159224],[-95.729158,36.15927],[-95.729064,36.159352],[-95.728917,36.159487],[-95.728834,36.159578],[-95.728807,36.159608],[-95.728696,36.159729],[-95.728474,36.159971],[-95.728327,36.160106],[-95.728171,36.160256],[-95.727989,36.160376],[-95.727817,36.160463],[-95.726529,36.160457],[-95.72629,36.160142],[-95.726313,36.155185]]]}},{"type":"Feature","properties":{"group":"Oklahoma Turnpike Authority","owner":"OKLAHOMA TURNPIKE AUTHORITY","acres":87.49,"legal":"","parcel":"301282-000000-000000","account":"730085659"},"geometry":{"type":"Polygon","coordinates":[[[-95.717067,36.089893],[-95.722749,36.089922],[-95.722745,36.09037],[-95.722246,36.090369],[-95.72228,36.093022],[-95.721882,36.093544],[-95.72176,36.093543],[-95.721608,36.093745],[-95.721606,36.093903],[-95.720657,36.095153],[-95.720633,36.096671],[-95.720626,36.097153],[-95.720541,36.102575],[-95.720538,36.102783],[-95.7207,36.10442],[-95.719209,36.104413],[-95.719321,36.097157],[-95.719348,36.095521],[-95.717064,36.09256],[-95.717067,36.089893]]]}},{"type":"Feature","properties":{"group":"Robson / Fair Oaks Ranch (MPD-6 applicants)","owner":"Robson family (private owner)","acres":2.58,"legal":"16-19-15 A TRCT OF LAND LYING IN THE S2 OF 16-19-15 BEG PT ON S LINE OF SD SEC SD PT BEING 2624.43' E OF THE SW COR THEREOF - N 01 DEG 26'42\" E A DIST OF 360.19' -S 89 DEG 46'56\" E A DIST OF 75.82' -S","parcel":"301164-000001-000000","account":"730001263"},"geometry":{"type":"Polygon","coordinates":[[[-95.717082,36.119912],[-95.717082,36.119819],[-95.716229,36.119816],[-95.716224,36.118917],[-95.717333,36.118924],[-95.717339,36.119914],[-95.717082,36.119912]]]}},{"type":"Feature","properties":{"group":"Robson / Fair Oaks Ranch (MPD-6 applicants)","owner":"FAIR OAKS RANCH, LLC","acres":200,"legal":"27-19-15 S2 N2 : NE NE","parcel":"301271-000001-000000","account":"730001609"},"geometry":{"type":"Polygon","coordinates":[[[-95.694822,36.097102],[-95.708258,36.097214],[-95.708271,36.100711],[-95.70604,36.100709],[-95.703802,36.100707],[-95.703159,36.100706],[-95.7027,36.100706],[-95.701591,36.100705],[-95.700433,36.100704],[-95.699318,36.100703],[-95.69819,36.100698],[-95.697062,36.100692],[-95.695934,36.100687],[-95.694806,36.100682],[-95.69481,36.10142],[-95.694814,36.102157],[-95.694819,36.102895],[-95.694827,36.103635],[-95.69483,36.104303],[-95.694833,36.104368],[-95.690365,36.104372],[-95.690362,36.103467],[-95.690356,36.101291],[-95.690354,36.100779],[-95.690349,36.098895],[-95.690343,36.097082],[-95.690512,36.097083],[-95.6919,36.097089],[-95.692994,36.097094],[-95.693908,36.097098],[-95.694822,36.097102]]]}},{"type":"Feature","properties":{"group":"Robson / Fair Oaks Ranch (MPD-6 applicants)","owner":"Robson family (private owner)","acres":400,"legal":"22-19-15 W2:W2 SE","parcel":"301222-000001-000000","account":"730001371"},"geometry":{"type":"Polygon","coordinates":[[[-95.699436,36.118923],[-95.699376,36.111597],[-95.694908,36.111572],[-95.694881,36.104368],[-95.699335,36.104364],[-95.700452,36.104354],[-95.701603,36.104356],[-95.70271,36.104358],[-95.703817,36.10436],[-95.704914,36.104359],[-95.706051,36.104358],[-95.706674,36.104358],[-95.707318,36.104357],[-95.708286,36.104356],[-95.708314,36.111608],[-95.708343,36.11892],[-95.699436,36.118923]]]}},{"type":"Feature","properties":{"group":"Robson / Fair Oaks Ranch (MPD-6 applicants)","owner":"FAIR OAKS RANCH, LLC","acres":560,"legal":"15-19-15 W2: NE: E2 SE LESS THE E 66.62FT OF SAID E/2 OF SE/4 FOR ROAD EASEMENT. LESS EAST 65.62 FT OF NE/4 FOR EASEMENT. BK 1050 PG 319","parcel":"301151-000001-000000","account":"730001248"},"geometry":{"type":"Polygon","coordinates":[[[-95.690451,36.126119],[-95.690453,36.118925],[-95.694921,36.118924],[-95.694918,36.120638],[-95.694935,36.122451],[-95.69491,36.126062],[-95.699379,36.126089],[-95.699423,36.12065],[-95.699436,36.118923],[-95.708343,36.11892],[-95.7084,36.133472],[-95.69045,36.133373],[-95.690451,36.126119]]]}},{"type":"Feature","properties":{"group":"Robson / Fair Oaks Ranch (MPD-6 applicants)","owner":"FAIR OAKS RANCH, LLC","acres":320,"legal":"10-19-15 SE : SW","parcel":"301103-000001-000000","account":"730000991"},"geometry":{"type":"Polygon","coordinates":[[[-95.69045,36.133373],[-95.7084,36.133472],[-95.708435,36.140727],[-95.699494,36.140678],[-95.690467,36.140631],[-95.690467,36.137002],[-95.690463,36.136174],[-95.690462,36.13601],[-95.690458,36.135186],[-95.690456,36.134582],[-95.69045,36.133373]]]}},{"type":"Feature","properties":{"group":"Robson / Fair Oaks Ranch (MPD-6 applicants)","owner":"FAIR OAKS RANCH, LLC","acres":160,"legal":"10-19-15 NW","parcel":"301102-000001-000000","account":"730000983"},"geometry":{"type":"Polygon","coordinates":[[[-95.708463,36.147869],[-95.699511,36.147901],[-95.699494,36.140678],[-95.708435,36.140727],[-95.708463,36.147869]]]}},{"type":"Feature","properties":{"group":"Robson / Fair Oaks Ranch (MPD-6 applicants)","owner":"FAIR OAKS RANCH, LLC","acres":639.19,"legal":"03-19-15 ALL OF SEC","parcel":"301031-000001-000000","account":"730000880"},"geometry":{"type":"Polygon","coordinates":[[[-95.699511,36.147901],[-95.708463,36.147869],[-95.708499,36.162373],[-95.690634,36.162322],[-95.690592,36.162321],[-95.690586,36.161675],[-95.690575,36.160539],[-95.690567,36.159655],[-95.690558,36.158776],[-95.690555,36.158297],[-95.690551,36.157844],[-95.690547,36.157391],[-95.690543,36.156963],[-95.690534,36.156057],[-95.690552,36.155151],[-95.690539,36.147882],[-95.699511,36.147901]]]}},{"type":"Feature","properties":{"group":"Robson / Fair Oaks Ranch (MPD-6 applicants)","owner":"FAIR OAKS RANCH LLC","acres":10,"legal":"15-19-15 SW SW SE","parcel":"301154-000003-000000","account":"730001250"},"geometry":{"type":"Polygon","coordinates":[[[-95.699423,36.12065],[-95.697188,36.120637],[-95.697202,36.118923],[-95.699436,36.118923],[-95.699423,36.12065]]]}},{"type":"Feature","properties":{"group":"Robson / Fair Oaks Ranch (MPD-6 applicants)","owner":"Robson family (private owner)","acres":50,"legal":"15-19-15 NW SE:NW SW SE","parcel":"301154-000001-000000","account":"730001253"},"geometry":{"type":"Polygon","coordinates":[[[-95.699379,36.126089],[-95.69491,36.126062],[-95.694909,36.126062],[-95.694935,36.122451],[-95.697173,36.122466],[-95.697188,36.120637],[-95.699423,36.12065],[-95.699379,36.126089]]]}},{"type":"Feature","properties":{"group":"Robson / Fair Oaks Ranch (MPD-6 applicants)","owner":"FAIR OAKS RANCH, LLC","acres":160,"legal":"14-19-15 SW","parcel":"301143-000001-000000","account":"730000029"},"geometry":{"type":"Polygon","coordinates":[[[-95.68149,36.118905],[-95.690453,36.118925],[-95.690451,36.126119],[-95.681508,36.126099],[-95.681504,36.124345],[-95.681499,36.122531],[-95.68149,36.118905]]]}},{"type":"Feature","properties":{"group":"Robson / Fair Oaks Ranch (MPD-6 applicants)","owner":"FAIR OAKS RANCH, LLC","acres":160,"legal":"23-19-15 NW","parcel":"301232-000001-000000","account":"730001394"},"geometry":{"type":"Polygon","coordinates":[[[-95.681471,36.111625],[-95.690409,36.111624],[-95.690453,36.118925],[-95.68149,36.118905],[-95.681471,36.111625]]]}},{"type":"Feature","properties":{"group":"Robson / Fair Oaks Ranch (MPD-6 applicants)","owner":"Robson family (private owner)","acres":396.8,"legal":"02-19-15 L-7&8 : S2 NE: SE: S2 SW: NW SW LESS BEG AT SW COR OF SW - N01'35'11\"W ALNG W LN OF SW DIS 1072.02' TO PT ON PRESENT S ROW LN OF E 7 ST - N88'40'47\"E DIS 24.75' TO PT ON PRESENT E ROW LN OF S","parcel":"301021-000010-000000","account":"730000685"},"geometry":{"type":"Polygon","coordinates":[[[-95.672882,36.160554],[-95.6729,36.15975],[-95.672884,36.159475],[-95.672878,36.158102],[-95.672891,36.15769],[-95.672879,36.155131],[-95.672863,36.151646],[-95.672903,36.15144],[-95.672901,36.151097],[-95.67286,36.15096],[-95.672849,36.148625],[-95.672827,36.14835],[-95.672825,36.147935],[-95.672825,36.147867],[-95.674878,36.147874],[-95.677114,36.147881],[-95.681572,36.147905],[-95.686033,36.147896],[-95.690539,36.147882],[-95.690552,36.155151],[-95.689211,36.155142],[-95.688288,36.155136],[-95.687919,36.155133],[-95.687215,36.155129],[-95.686097,36.155122],[-95.686095,36.15438],[-95.686091,36.153309],[-95.68609,36.15221],[-95.686091,36.151496],[-95.681618,36.151466],[-95.68162,36.153279],[-95.681623,36.155092],[-95.681628,36.158718],[-95.681648,36.160541],[-95.680552,36.160543],[-95.679963,36.160544],[-95.679402,36.160544],[-95.67828,36.160546],[-95.677158,36.160548],[-95.676037,36.160549],[-95.674915,36.160551],[-95.673803,36.160552],[-95.672882,36.160554]]]}},{"type":"Feature","properties":{"group":"Z-7851 phase-2 applicant owners","owner":"Private owner (see Assessor record)","acres":14.27,"legal":"11-19-15 COMM AT E1/4 COR OF SEC 11 - S01'38'09\"E ALNG THE E LN OF SEC 11 DIS 783.08' TO POB - S88'50'09\"W DIS 1317.63' TO A PT ON W LN OF NE SE - S01'36'56\"E A DIS 538.03' - N88'48'42\"E DIS 779.26' -","parcel":"301114-000001-001000","account":"730075500"},"geometry":{"type":"Polygon","coordinates":[[[-95.674433,36.136924],[-95.677075,36.136927],[-95.677077,36.137304],[-95.677081,36.137935],[-95.677084,36.138401],[-95.672614,36.138397],[-95.672612,36.137885],[-95.67261,36.137357],[-95.674422,36.137368],[-95.674433,36.136924]]]}},{"type":"Feature","properties":{"group":"Z-7851 phase-2 applicant owners","owner":"Private owner (see Assessor record)","acres":14.69,"legal":"11-19-15 NKA NE SE COMM E4 -S01'38'09\"E ALONG E LN A DIST 433.36' POB -S01'38'09\"E A DIST 339.62' -S88'50'09\"W A DIST 1317.63' TO W LN NE SE -N01'36'56\"W A DIST 783.13' NW COR NE SE -N88'50'13\"E A DIS","parcel":"301114-000001-000002","account":"730086680"},"geometry":{"type":"Polygon","coordinates":[[[-95.675847,36.140552],[-95.675844,36.139595],[-95.674196,36.139593],[-95.674195,36.139332],[-95.672617,36.13933],[-95.672617,36.13931],[-95.672617,36.139098],[-95.672615,36.138735],[-95.672614,36.138464],[-95.672614,36.138459],[-95.672614,36.138397],[-95.677084,36.138401],[-95.677085,36.138575],[-95.677088,36.139166],[-95.67709,36.139743],[-95.677094,36.140553],[-95.676395,36.140552],[-95.675847,36.140552]]]}},{"type":"Feature","properties":{"group":"Robson / Fair Oaks Ranch (MPD-6 applicants)","owner":"Robson family (private owner)","acres":80.36,"legal":"01-19-15 S2 SW LESS N 250' OF SW SW TO JEFFERSON HILLS THE S 250' OF SE OF SE OF SEC 1 AND THE E 10' OF S 10' OF NE OF SW OF SEC 1 AND S 10' OF NW OF SE OF SEC 1 AND W 10' OF S 10' OF NE OF SE OF SEC","parcel":"301013-000002-000000","account":"730000431"},"geometry":{"type":"Polygon","coordinates":[[[-95.67244,36.147866],[-95.672643,36.147867],[-95.672483,36.147867],[-95.672483,36.147935],[-95.672486,36.148626],[-95.672557,36.1489],[-95.672565,36.150812],[-95.670029,36.15079],[-95.669352,36.150787],[-95.668125,36.15078],[-95.668132,36.151324],[-95.668134,36.151467],[-95.667541,36.151464],[-95.666948,36.151461],[-95.666356,36.151458],[-95.665763,36.151454],[-95.66517,36.15145],[-95.664577,36.151447],[-95.6639,36.151443],[-95.663804,36.151442],[-95.663693,36.151441],[-95.663697,36.15083],[-95.663701,36.147838],[-95.67244,36.147866]]]}}]}